[{"OBJECT_NAME":"FLOCK 4G-1","OBJECT_ID":"2025-009BK","EPOCH":"2026-03-09T18:13:41.778912","MEAN_MOTION":15.27421081,"ECCENTRICITY":0.00031801,"INCLINATION":97.4059,"RA_OF_ASC_NODE":151.3158,"ARG_OF_PERICENTER":323.1401,"MEAN_ANOMALY":36.9619,"EPHEMERIS_TYPE":0,"CLASSIFICATION_TYPE":"U","NORAD_CAT_ID":62666,"ELEMENT_SET_NO":999,"REV_AT_EPOCH":6372,"BSTAR":0.00050653644,"MEAN_MOTION_DOT":0.00013534,"MEAN_MOTION_DDOT":0},{"OBJECT_NAME":"STARLINK-35986","OBJECT_ID":"2025-281F","EPOCH":"2026-03-09T03:21:20.691648","MEAN_MOTION":15.27597385,"ECCENTRICITY":0.0001048,"INCLINATION":43.0001,"RA_OF_ASC_NODE":346.3912,"ARG_OF_PERICENTER":278.0103,"MEAN_ANOMALY":82.0629,"EPHEMERIS_TYPE":0,"CLASSIFICATION_TYPE":"U","NORAD_CAT_ID":66853,"ELEMENT_SET_NO":999,"REV_AT_EPOCH":1610,"BSTAR":0.00095032814,"MEAN_MOTION_DOT":0.00025995,"MEAN_MOTION_DDOT":0}]
